[{"OBJECT_NAME":"STARLINK-3779","OBJECT_ID":"2022-041W","EPOCH":"2026-01-19T23:39:46.516320","MEAN_MOTION":15.08848725,"ECCENTRICITY":0.00015018,"INCLINATION":53.2203,"RA_OF_ASC_NODE":327.7622,"ARG_OF_PERICENTER":93.3399,"MEAN_ANOMALY":266.7765,"EPHEMERIS_TYPE":0,"CLASSIFICATION_TYPE":"U","NORAD_CAT_ID":52281,"ELEMENT_SET_NO":999,"REV_AT_EPOCH":20701,"BSTAR":-3.1487714e-5,"MEAN_MOTION_DOT":-7.89e-6,"MEAN_MOTION_DDOT":0},{"OBJECT_NAME":"STARLINK-3783","OBJECT_ID":"2022-041X","EPOCH":"2026-01-19T23:07:55.083072","MEAN_MOTION":15.08840896,"ECCENTRICITY":0.00015967,"INCLINATION":53.2185,"RA_OF_ASC_NODE":317.8613,"ARG_OF_PERICENTER":87.2403,"MEAN_ANOMALY":272.8772,"EPHEMERIS_TYPE":0,"CLASSIFICATION_TYPE":"U","NORAD_CAT_ID":52282,"ELEMENT_SET_NO":999,"REV_AT_EPOCH":20714,"BSTAR":5.9294539e-5,"MEAN_MOTION_DOT":6.56e-6,"MEAN_MOTION_DDOT":0},{"OBJECT_NAME":"STARLINK-3789","OBJECT_ID":"2022-041Y","EPOCH":"2026-01-19T20:17:01.350528","MEAN_MOTION":15.08838859,"ECCENTRICITY":0.00016342,"INCLINATION":53.2206,"RA_OF_ASC_NODE":328.3953,"ARG_OF_PERICENTER":84.7055,"MEAN_ANOMALY":275.4123,"EPHEMERIS_TYPE":0,"CLASSIFICATION_TYPE":"U","NORAD_CAT_ID":52283,"ELEMENT_SET_NO":999,"REV_AT_EPOCH":20699,"BSTAR":6.2741765e-5,"MEAN_MOTION_DOT":7.11e-6,"MEAN_MOTION_DDOT":0},{"OBJECT_NAME":"STARLINK-3561","OBJECT_ID":"2022-041Z","EPOCH":"2026-01-19T19:46:33.357216","MEAN_MOTION":15.08834224,"ECCENTRICITY":0.00014834,"INCLINATION":53.2183,"RA_OF_ASC_NODE":318.49,"ARG_OF_PERICENTER":91.7565,"MEAN_ANOMALY":268.3597,"EPHEMERIS_TYPE":0,"CLASSIFICATION_TYPE":"U","NORAD_CAT_ID":52284,"ELEMENT_SET_NO":999,"REV_AT_EPOCH":20712,"BSTAR":4.1146194e-5,"MEAN_MOTION_DOT":3.67e-6,"MEAN_MOTION_DDOT":0},{"OBJECT_NAME":"STARLINK-3802","OBJECT_ID":"2022-041AB","EPOCH":"2026-01-19T19:35:56.967648","MEAN_MOTION":15.08845357,"ECCENTRICITY":0.00019015,"INCLINATION":53.2192,"RA_OF_ASC_NODE":318.5261,"ARG_OF_PERICENTER":66.6894,"MEAN_ANOMALY":293.4298,"EPHEMERIS_TYPE":0,"CLASSIFICATION_TYPE":"U","NORAD_CAT_ID":52286,"ELEMENT_SET_NO":999,"REV_AT_EPOCH":20712,"BSTAR":5.2742806e-5,"MEAN_MOTION_DOT":5.51e-6,"MEAN_MOTION_DDOT":0},{"OBJECT_NAME":"STARLINK-3822","OBJECT_ID":"2022-041AC","EPOCH":"2026-01-19T20:01:07.706208","MEAN_MOTION":15.08834445,"ECCENTRICITY":0.0001319,"INCLINATION":53.22,"RA_OF_ASC_NODE":328.4445,"ARG_OF_PERICENTER":92.1244,"MEAN_ANOMALY":267.9899,"EPHEMERIS_TYPE":0,"CLASSIFICATION_TYPE":"U","NORAD_CAT_ID":52287,"ELEMENT_SET_NO":999,"REV_AT_EPOCH":20699,"BSTAR":4.390228e-5,"MEAN_MOTION_DOT":4.11e-6,"MEAN_MOTION_DDOT":0},{"OBJECT_NAME":"STARLINK-3776","OBJECT_ID":"2022-041AD","EPOCH":"2026-01-19T19:30:39.583296","MEAN_MOTION":15.0883519,"ECCENTRICITY":0.00017411,"INCLINATION":53.2206,"RA_OF_ASC_NODE":318.5393,"ARG_OF_PERICENTER":91.5585,"MEAN_ANOMALY":268.5606,"EPHEMERIS_TYPE":0,"CLASSIFICATION_TYPE":"U","NORAD_CAT_ID":52288,"ELEMENT_SET_NO":999,"REV_AT_EPOCH":20712,"BSTAR":3.8275763e-5,"MEAN_MOTION_DOT":3.21e-6,"MEAN_MOTION_DDOT":0},{"OBJECT_NAME":"STARLINK-3751","OBJECT_ID":"2022-041AE","EPOCH":"2026-01-19T23:02:37.108608","MEAN_MOTION":15.08840022,"ECCENTRICITY":0.00015881,"INCLINATION":53.2202,"RA_OF_ASC_NODE":317.8788,"ARG_OF_PERICENTER":90.665,"MEAN_ANOMALY":269.4524,"EPHEMERIS_TYPE":0,"CLASSIFICATION_TYPE":"U","NORAD_CAT_ID":52289,"ELEMENT_SET_NO":999,"REV_AT_EPOCH":20714,"BSTAR":0.00013103322,"MEAN_MOTION_DOT":1.798e-5,"MEAN_MOTION_DDOT":0},{"OBJECT_NAME":"STARLINK-3772","OBJECT_ID":"2022-041AF","EPOCH":"2026-01-19T12:54:35.726400","MEAN_MOTION":15.08835777,"ECCENTRICITY":0.00014324,"INCLINATION":53.2206,"RA_OF_ASC_NODE":319.7754,"ARG_OF_PERICENTER":92.8207,"MEAN_ANOMALY":267.2949,"EPHEMERIS_TYPE":0,"CLASSIFICATION_TYPE":"U","NORAD_CAT_ID":52290,"ELEMENT_SET_NO":999,"REV_AT_EPOCH":20708,"BSTAR":4.1254405e-5,"MEAN_MOTION_DOT":3.69e-6,"MEAN_MOTION_DDOT":0},{"OBJECT_NAME":"STARLINK-3753","OBJECT_ID":"2022-041AH","EPOCH":"2026-01-19T12:47:55.144032","MEAN_MOTION":15.08834672,"ECCENTRICITY":0.00015179,"INCLINATION":53.2192,"RA_OF_ASC_NODE":319.7951,"ARG_OF_PERICENTER":92.6371,"MEAN_ANOMALY":267.4795,"EPHEMERIS_TYPE":0,"CLASSIFICATION_TYPE":"U","NORAD_CAT_ID":52292,"ELEMENT_SET_NO":999,"REV_AT_EPOCH":20708,"BSTAR":1.6667663e-5,"MEAN_MOTION_DOT":-2.3e-7,"MEAN_MOTION_DDOT":0},{"OBJECT_NAME":"STARLINK-3771","OBJECT_ID":"2022-041AJ","EPOCH":"2026-01-19T19:26:44.125152","MEAN_MOTION":15.08843368,"ECCENTRICITY":0.00014568,"INCLINATION":53.2184,"RA_OF_ASC_NODE":318.5622,"ARG_OF_PERICENTER":84.4972,"MEAN_ANOMALY":275.6187,"EPHEMERIS_TYPE":0,"CLASSIFICATION_TYPE":"U","NORAD_CAT_ID":52293,"ELEMENT_SET_NO":999,"REV_AT_EPOCH":20712,"BSTAR":0.00026754208,"MEAN_MOTION_DOT":3.973e-5,"MEAN_MOTION_DDOT":0},{"OBJECT_NAME":"STARLINK-3777","OBJECT_ID":"2022-041AK","EPOCH":"2026-01-19T23:50:19.214880","MEAN_MOTION":15.088231,"ECCENTRICITY":0.00018912,"INCLINATION":53.2216,"RA_OF_ASC_NODE":317.7342,"ARG_OF_PERICENTER":99.6402,"MEAN_ANOMALY":260.4804,"EPHEMERIS_TYPE":0,"CLASSIFICATION_TYPE":"U","NORAD_CAT_ID":52294,"ELEMENT_SET_NO":999,"REV_AT_EPOCH":20715,"BSTAR":0.0003785255,"MEAN_MOTION_DOT":5.739e-5,"MEAN_MOTION_DDOT":0},{"OBJECT_NAME":"STARLINK-3765","OBJECT_ID":"2022-041AL","EPOCH":"2026-01-19T19:20:04.313472","MEAN_MOTION":15.08836809,"ECCENTRICITY":0.00010293,"INCLINATION":53.2204,"RA_OF_ASC_NODE":318.575,"ARG_OF_PERICENTER":107.0816,"MEAN_ANOMALY":253.0289,"EPHEMERIS_TYPE":0,"CLASSIFICATION_TYPE":"U","NORAD_CAT_ID":52295,"ELEMENT_SET_NO":999,"REV_AT_EPOCH":20712,"BSTAR":5.1808195e-5,"MEAN_MOTION_DOT":5.37e-6,"MEAN_MOTION_DDOT":0},{"OBJECT_NAME":"STARLINK-3766","OBJECT_ID":"2022-041AM","EPOCH":"2026-01-19T23:34:25.118688","MEAN_MOTION":15.08834599,"ECCENTRICITY":0.00013476,"INCLINATION":53.218,"RA_OF_ASC_NODE":317.775,"ARG_OF_PERICENTER":93.5012,"MEAN_ANOMALY":266.6135,"EPHEMERIS_TYPE":0,"CLASSIFICATION_TYPE":"U","NORAD_CAT_ID":52296,"ELEMENT_SET_NO":999,"REV_AT_EPOCH":20715,"BSTAR":4.7911105e-5,"MEAN_MOTION_DOT":4.75e-6,"MEAN_MOTION_DDOT":0},{"OBJECT_NAME":"STARLINK-3758","OBJECT_ID":"2022-041AN","EPOCH":"2026-01-19T12:53:12.302880","MEAN_MOTION":15.08848206,"ECCENTRICITY":0.00014005,"INCLINATION":53.2203,"RA_OF_ASC_NODE":319.7777,"ARG_OF_PERICENTER":88.2893,"MEAN_ANOMALY":271.826,"EPHEMERIS_TYPE":0,"CLASSIFICATION_TYPE":"U","NORAD_CAT_ID":52297,"ELEMENT_SET_NO":999,"REV_AT_EPOCH":20708,"BSTAR":4.7838551e-5,"MEAN_MOTION_DOT":4.74e-6,"MEAN_MOTION_DDOT":0},{"OBJECT_NAME":"STARLINK-3760","OBJECT_ID":"2022-041AP","EPOCH":"2026-01-19T19:25:17.392512","MEAN_MOTION":15.08844966,"ECCENTRICITY":0.00015476,"INCLINATION":53.2192,"RA_OF_ASC_NODE":318.1718,"ARG_OF_PERICENTER":89.9051,"MEAN_ANOMALY":270.2118,"EPHEMERIS_TYPE":0,"CLASSIFICATION_TYPE":"U","NORAD_CAT_ID":52298,"ELEMENT_SET_NO":999,"REV_AT_EPOCH":20713,"BSTAR":4.3491645e-5,"MEAN_MOTION_DOT":4.04e-6,"MEAN_MOTION_DDOT":0}]
