STARLINK-3779           
1 52281U 22041W   26019.98595505 -.00000789  00000+0 -31488-4 0  9994
2 52281  53.2203 327.7622 0001501  93.3399 266.7765 15.08848725207014
STARLINK-3783           
1 52282U 22041X   26019.96383198  .00000656  00000+0  59295-4 0  9993
2 52282  53.2185 317.8613 0001596  87.2403 272.8772 15.08840896207147
STARLINK-3789           
1 52283U 22041Y   26019.84515452  .00000711  00000+0  62742-4 0  9994
2 52283  53.2206 328.3953 0001634  84.7055 275.4123 15.08838859206991
STARLINK-3561           
1 52284U 22041Z   26019.82399719  .00000367  00000+0  41146-4 0  9991
2 52284  53.2183 318.4900 0001483  91.7565 268.3597 15.08834224207128
STARLINK-3802           
1 52286U 22041AB  26019.81663157  .00000551  00000+0  52743-4 0  9992
2 52286  53.2192 318.5261 0001901  66.6894 293.4298 15.08845357207128
STARLINK-3822           
1 52287U 22041AC  26019.83411697  .00000411  00000+0  43902-4 0  9997
2 52287  53.2200 328.4445 0001319  92.1244 267.9899 15.08834445206992
STARLINK-3776           
1 52288U 22041AD  26019.81295814  .00000321  00000+0  38276-4 0  9995
2 52288  53.2206 318.5393 0001741  91.5585 268.5606 15.08835190207128
STARLINK-3751           
1 52289U 22041AE  26019.96015172  .00001798  00000+0  13103-3 0  9999
2 52289  53.2202 317.8788 0001588  90.6650 269.4524 15.08840022207148
STARLINK-3772           
1 52290U 22041AF  26019.53791350  .00000369  00000+0  41254-4 0  9995
2 52290  53.2206 319.7754 0001432  92.8207 267.2949 15.08835777207089
STARLINK-3753           
1 52292U 22041AH  26019.53327713 -.00000023  00000+0  16668-4 0  9994
2 52292  53.2192 319.7951 0001517  92.6371 267.4795 15.08834672207082
STARLINK-3771           
1 52293U 22041AJ  26019.81023293  .00003973  00000+0  26754-3 0  9994
2 52293  53.2184 318.5622 0001456  84.4972 275.6187 15.08843368207127
STARLINK-3777           
1 52294U 22041AK  26019.99327795  .00005739  00000+0  37853-3 0  9992
2 52294  53.2216 317.7342 0001891  99.6402 260.4804 15.08823100207156
STARLINK-3765           
1 52295U 22041AL  26019.80560548  .00000537  00000+0  51808-4 0  9996
2 52295  53.2204 318.5750 0001029 107.0816 253.0289 15.08836809207124
STARLINK-3766           
1 52296U 22041AM  26019.98223517  .00000475  00000+0  47911-4 0  9999
2 52296  53.2180 317.7750 0001347  93.5012 266.6135 15.08834599207156
STARLINK-3758           
1 52297U 22041AN  26019.53694795  .00000474  00000+0  47839-4 0  9999
2 52297  53.2203 319.7777 0001400  88.2893 271.8260 15.08848206207081
STARLINK-3760           
1 52298U 22041AP  26019.80922908  .00000404  00000+0  43492-4 0  9994
2 52298  53.2192 318.1718 0001547  89.9051 270.2118 15.08844966207133
